{"type": "FeatureCollection", "features": [ {"type": "Feature", "properties": {"norad_id": 37834, "name": "INTELSAT 18 (IS-18)", "group": "intelsat", "lat": 0.03612531289413099, "lon": 67.55345376277704, "alt_km": 35795.00201511615, "timestamp": "2025-12-06T11:28:10.697029+00:00", "meta": {"OBJECT_NAME": "INTELSAT 18 (IS-18)", "OBJECT_ID": "2011-056A", "EPOCH": "2025-12-05T18:50:38.529024", "MEAN_MOTION": 1.00271406, "ECCENTRICITY": 0.00021367, "INCLINATION": 0.0143, "RA_OF_ASC_NODE": 313.4239, "ARG_OF_PERICENTER": 305.6778, "MEAN_ANOMALY": 278.3927, "EPHEMERIS_TYPE": 0, "CLASSIFICATION_TYPE": "U", "NORAD_CAT_ID": 37834, "ELEMENT_SET_NO": 999, "REV_AT_EPOCH": 5187, "BSTAR": 0, "MEAN_MOTION_DOT": 6.3e-07, "MEAN_MOTION_DDOT": 0}, "tle": {"line1": "1 37834U 11056A   25339.78516816  .00000063  00000+0  00000+0 0  9999", "line2": "2 37834   0.0143 313.4239 0002136 305.6778 278.3927  1.00271406 51878"}}, "geometry": {"type": "Point", "coordinates": [67.55345376277704, 0.03612531289413099]}}, {"type": "Feature", "properties": {"norad_id": 38098, "name": "INTELSAT 22 (IS-22)", "group": "intelsat", "lat": -0.013586372971857833, "lon": -40.326858493336374, "alt_km": 35781.6199966049, "timestamp": "2025-12-06T11:28:10.697041+00:00", "meta": {"OBJECT_NAME": "INTELSAT 22 (IS-22)", "OBJECT_ID": "2012-011A", "EPOCH": "2025-12-05T21:26:26.562336", "MEAN_MOTION": 1.00271034, "ECCENTRICITY": 0.00017858, "INCLINATION": 0.0091, "RA_OF_ASC_NODE": 42.0366, "ARG_OF_PERICENTER": 225.8534, "MEAN_ANOMALY": 200.7704, "EPHEMERIS_TYPE": 0, "CLASSIFICATION_TYPE": "U", "NORAD_CAT_ID": 38098, "ELEMENT_SET_NO": 999, "REV_AT_EPOCH": 525, "BSTAR": 0, "MEAN_MOTION_DOT": -4.9e-07, "MEAN_MOTION_DDOT": 0}, "tle": {"line1": "1 38098U 12011A   25339.89336299 -.00000049  00000+0  00000+0 0  9996", "line2": "2 38098   0.0091  42.0366 0001785 225.8534 200.7704  1.00271034  5251"}}, "geometry": {"type": "Point", "coordinates": [-40.326858493336374, -0.013586372971857833]}}, {"type": "Feature", "properties": {"norad_id": 38356, "name": "INTELSAT 19 (IS-19)", "group": "intelsat", "lat": 0.03469029885707611, "lon": 53.5721238443878, "alt_km": 35799.841868666364, "timestamp": "2025-12-06T11:28:10.697054+00:00", "meta": {"OBJECT_NAME": "INTELSAT 19 (IS-19)", "OBJECT_ID": "2012-030A", "EPOCH": "2025-12-05T19:06:38.655072", "MEAN_MOTION": 1.00270157, "ECCENTRICITY": 0.00035224, "INCLINATION": 0.011, "RA_OF_ASC_NODE": 345.0794, "ARG_OF_PERICENTER": 275.3724, "MEAN_ANOMALY": 267.0626, "EPHEMERIS_TYPE": 0, "CLASSIFICATION_TYPE": "U", "NORAD_CAT_ID": 38356, "ELEMENT_SET_NO": 999, "REV_AT_EPOCH": 4851, "BSTAR": 0, "MEAN_MOTION_DOT": -4.7e-07, "MEAN_MOTION_DDOT": 0}, "tle": {"line1": "1 38356U 12030A   25339.79628073 -.00000047  00000+0  00000+0 0  9995", "line2": "2 38356   0.0110 345.0794 0003522 275.3724 267.0626  1.00270157 48513"}}, "geometry": {"type": "Point", "coordinates": [53.5721238443878, 0.03469029885707611]}}, {"type": "Feature", "properties": {"norad_id": 38740, "name": "INTELSAT 20 (IS-20)", "group": "intelsat", "lat": -0.02226673010803099, "lon": -43.93031382337838, "alt_km": 35794.34359769146, "timestamp": "2025-12-06T11:28:10.697066+00:00", "meta": {"OBJECT_NAME": "INTELSAT 20 (IS-20)", "OBJECT_ID": "2012-043A", "EPOCH": "2025-12-05T21:26:38.561568", "MEAN_MOTION": 1.00269948, "ECCENTRICITY": 0.00031687, "INCLINATION": 0.0144, "RA_OF_ASC_NODE": 8.3113, "ARG_OF_PERICENTER": 181.8288, "MEAN_ANOMALY": 274.956, "EPHEMERIS_TYPE": 0, "CLASSIFICATION_TYPE": "U", "NORAD_CAT_ID": 38740, "ELEMENT_SET_NO": 999, "REV_AT_EPOCH": 4881, "BSTAR": 0, "MEAN_MOTION_DOT": 0, "MEAN_MOTION_DDOT": 0}, "tle": {"line1": "1 38740U 12043A   25339.89350187  .00000000  00000+0  00000+0 0  9993", "line2": "2 38740   0.0144   8.3113 0003168 181.8288 274.9560  1.00269948 48816"}}, "geometry": {"type": "Point", "coordinates": [-43.93031382337838, -0.02226673010803099]}}, {"type": "Feature", "properties": {"norad_id": 38749, "name": "INTELSAT 21 (IS-21)", "group": "intelsat", "lat": -0.025709769190130335, "lon": -170.4678804003595, "alt_km": 35781.447851281206, "timestamp": "2025-12-06T11:28:10.697077+00:00", "meta": {"OBJECT_NAME": "INTELSAT 21 (IS-21)", "OBJECT_ID": "2012-045A", "EPOCH": "2025-12-05T21:58:54.153120", "MEAN_MOTION": 1.00271371, "ECCENTRICITY": 0.00022706, "INCLINATION": 0.0169, "RA_OF_ASC_NODE": 331.0459, "ARG_OF_PERICENTER": 278.3642, "MEAN_ANOMALY": 97.2849, "EPHEMERIS_TYPE": 0, "CLASSIFICATION_TYPE": "U", "NORAD_CAT_ID": 38749, "ELEMENT_SET_NO": 999, "REV_AT_EPOCH": 4858, "BSTAR": 0, "MEAN_MOTION_DOT": -2.76e-06, "MEAN_MOTION_DDOT": 0}, "tle": {"line1": "1 38749U 12045A   25339.91590455 -.00000276  00000+0  00000+0 0  9997", "line2": "2 38749   0.0169 331.0459 0002270 278.3642  97.2849  1.00271371 48583"}}, "geometry": {"type": "Point", "coordinates": [-170.4678804003595, -0.025709769190130335]}}, {"type": "Feature", "properties": {"norad_id": 38867, "name": "INTELSAT 23 (IS-23)", "group": "intelsat", "lat": 0.019386419230249332, "lon": -165.46484826857892, "alt_km": 35778.00608592816, "timestamp": "2025-12-06T11:28:10.697089+00:00", "meta": {"OBJECT_NAME": "INTELSAT 23 (IS-23)", "OBJECT_ID": "2012-057A", "EPOCH": "2025-12-05T22:00:16.520832", "MEAN_MOTION": 1.00275117, "ECCENTRICITY": 0.00018173, "INCLINATION": 0.0473, "RA_OF_ASC_NODE": 101.0294, "ARG_OF_PERICENTER": 113.2051, "MEAN_ANOMALY": 137.7844, "EPHEMERIS_TYPE": 0, "CLASSIFICATION_TYPE": "U", "NORAD_CAT_ID": 38867, "ELEMENT_SET_NO": 999, "REV_AT_EPOCH": 4801, "BSTAR": 0, "MEAN_MOTION_DOT": -2.75e-06, "MEAN_MOTION_DDOT": 0}, "tle": {"line1": "1 38867U 12057A   25339.91685788 -.00000275  00000+0  00000+0 0  9994", "line2": "2 38867   0.0473 101.0294 0001817 113.2051 137.7844  1.00275117 48016"}}, "geometry": {"type": "Point", "coordinates": [-165.46484826857892, 0.019386419230249332]}}, {"type": "Feature", "properties": {"norad_id": 39360, "name": "FM-6", "group": "intelsat", "lat": 0.0014281013649960063, "lon": 131.38033488214245, "alt_km": 35777.0119091588, "timestamp": "2025-12-06T11:28:10.697101+00:00", "meta": {"OBJECT_NAME": "FM-6", "OBJECT_ID": "2013-058A", "EPOCH": "2025-12-05T21:42:18.242784", "MEAN_MOTION": 1.00271217, "ECCENTRICITY": 0.00029344, "INCLINATION": 0.0023, "RA_OF_ASC_NODE": 65.4913, "ARG_OF_PERICENTER": 107.3656, "MEAN_ANOMALY": 111.5248, "EPHEMERIS_TYPE": 0, "CLASSIFICATION_TYPE": "U", "NORAD_CAT_ID": 39360, "ELEMENT_SET_NO": 999, "REV_AT_EPOCH": 4413, "BSTAR": 0, "MEAN_MOTION_DOT": -8e-08, "MEAN_MOTION_DDOT": 0}, "tle": {"line1": "1 39360U 13058A   25339.90437781 -.00000008  00000+0  00000+0 0  9996", "line2": "2 39360   0.0023  65.4913 0002934 107.3656 111.5248  1.00271217 44137"}}, "geometry": {"type": "Point", "coordinates": [131.38033488214245, 0.0014281013649960063]}}, {"type": "Feature", "properties": {"norad_id": 40271, "name": "INTELSAT 30 (IS-30)", "group": "intelsat", "lat": 0.015102430117762062, "lon": 152.50259050274872, "alt_km": 35784.709777158954, "timestamp": "2025-12-06T11:28:10.697112+00:00", "meta": {"OBJECT_NAME": "INTELSAT 30 (IS-30)", "OBJECT_ID": "2014-062A", "EPOCH": "2025-12-05T21:48:17.669376", "MEAN_MOTION": 1.00269734, "ECCENTRICITY": 0.0001097, "INCLINATION": 0.0145, "RA_OF_ASC_NODE": 18.6109, "ARG_OF_PERICENTER": 69.0496, "MEAN_ANOMALY": 219.3147, "EPHEMERIS_TYPE": 0, "CLASSIFICATION_TYPE": "U", "NORAD_CAT_ID": 40271, "ELEMENT_SET_NO": 999, "REV_AT_EPOCH": 484, "BSTAR": 0, "MEAN_MOTION_DOT": -1.41e-06, "MEAN_MOTION_DDOT": 0}, "tle": {"line1": "1 40271U 14062A   25339.90853784 -.00000141  00000+0  00000+0 0  9998", "line2": "2 40271   0.0145  18.6109 0001097  69.0496 219.3147  1.00269734  4847"}}, "geometry": {"type": "Point", "coordinates": [152.50259050274872, 0.015102430117762062]}}, {"type": "Feature", "properties": {"norad_id": 40333, "name": "DIRECTV 14", "group": "intelsat", "lat": 0.0031024014082381905, "lon": 148.32666162165648, "alt_km": 35785.81403388589, "timestamp": "2025-12-06T11:28:10.697124+00:00", "meta": {"OBJECT_NAME": "DIRECTV 14", "OBJECT_ID": "2014-078B", "EPOCH": "2025-12-05T21:47:02.789088", "MEAN_MOTION": 1.0027009, "ECCENTRICITY": 4.065e-05, "INCLINATION": 0.0168, "RA_OF_ASC_NODE": 331.689, "ARG_OF_PERICENTER": 240.0635, "MEAN_ANOMALY": 90.7489, "EPHEMERIS_TYPE": 0, "CLASSIFICATION_TYPE": "U", "NORAD_CAT_ID": 40333, "ELEMENT_SET_NO": 999, "REV_AT_EPOCH": 4010, "BSTAR": 0, "MEAN_MOTION_DOT": -1.16e-06, "MEAN_MOTION_DDOT": 0}, "tle": {"line1": "1 40333U 14078B   25339.90767117 -.00000116  00000+0  00000+0 0  9990", "line2": "2 40333   0.0168 331.6890 0000406 240.0635  90.7489  1.00270090 40101"}}, "geometry": {"type": "Point", "coordinates": [148.32666162165648, 0.0031024014082381905]}}, {"type": "Feature", "properties": {"norad_id": 40663, "name": "DIRECTV 15", "group": "intelsat", "lat": 0.03181949360096534, "lon": 144.67906841445873, "alt_km": 35786.38391614259, "timestamp": "2025-12-06T11:28:10.697136+00:00", "meta": {"OBJECT_NAME": "DIRECTV 15", "OBJECT_ID": "2015-026A", "EPOCH": "2025-12-05T21:46:02.883648", "MEAN_MOTION": 1.00270121, "ECCENTRICITY": 4.903e-05, "INCLINATION": 0.0401, "RA_OF_ASC_NODE": 82.5154, "ARG_OF_PERICENTER": 147.2691, "MEAN_ANOMALY": 68.8202, "EPHEMERIS_TYPE": 0, "CLASSIFICATION_TYPE": "U", "NORAD_CAT_ID": 40663, "ELEMENT_SET_NO": 999, "REV_AT_EPOCH": 3852, "BSTAR": 0, "MEAN_MOTION_DOT": -9.3e-07, "MEAN_MOTION_DDOT": 0}, "tle": {"line1": "1 40663U 15026A   25339.90697782 -.00000093  00000+0  00000+0 0  9994", "line2": "2 40663   0.0401  82.5154 0000490 147.2691  68.8202  1.00270121 38522"}}, "geometry": {"type": "Point", "coordinates": [144.67906841445873, 0.03181949360096534]}}]}